ELEKTRO-L 3             
1 44903U 19095A   20038.61854777 -.00000059  00000-0  00000+0 0  9996
2 44903   0.4727 282.2767 0004011  41.0184 202.3165  1.00271713   449
SHIJIAN-20 (SJ-20)      
1 44910U 19097A   20038.58773707 -.00000362  00000-0  00000-0 0  9993
2 44910   0.0689 290.8944 0004881  58.6610 114.3775  1.00272682   439
